YUSAT-1                 
1 47439U 21006AC  24121.44105643  .00086736  00000+0  12223-2 0  9994
2 47439  97.3273 185.0104 0003227  14.1531 345.9814 15.56324471181594
2021-006AE              
1 47441U 21006AE  24121.55287416  .00171666  00000+0  15176-2 0  9995
2 47441  97.3025 185.8369 0001817 343.0977  17.0224 15.68115027181707
SOMP2B                  
1 47445U 21006AJ  24121.62425401  .00030260  00000+0  74905-3 0  9995
2 47445  97.3277 180.1518 0006547  47.7617 312.4184 15.40361861181322
CUBEL                   
1 47448U 21006AM  24121.59363599  .00004908  00000+0  22582-3 0  9997
2 47448  97.3472 174.2922 0012010  68.5361 291.7154 15.20723475180780
FLOCK 4S-21             
1 47456U 21006AV  24121.42906985  .00034002  00000+0  66401-3 0  9996
2 47456  97.3352 186.3553 0005046  23.8881 336.2603 15.47393501181611
IDEASSAT                
1 47458U 21006AX  24121.13345774  .00028511  00000+0  75848-3 0  9992
2 47458  97.3382 180.2989 0006670  51.0399 309.1439 15.38163697181193
ASTROCAST-0103          
1 47487U 21006CC  24121.60581270  .00010307  00000+0  40845-3 0  9992
2 47487  97.3567 176.1786 0009610  86.9391 273.2947 15.25548914180891
ASTROCAST-0102          
1 47488U 21006CD  24121.11076225  .00023029  00000+0  82333-3 0  9991
2 47488  97.3462 175.0961 0007962  66.5287 293.6789 15.28787809180830
ASTROCAST-0104          
1 47519U 21006DK  24121.58944152  .00009440  00000+0  37387-3 0  9990
2 47519  97.3516 175.5607 0008916  59.3553 300.8563 15.25599834180885
FLOCK 4S-10             
1 47523U 21006DP  24121.43303471  .00031013  00000+0  62817-3 0  9999
2 47523  97.3359 185.1161 0004626  40.4705 319.6888 15.46350369181577
FLOCK 4S-7              
1 47527U 21006DT  24121.62484914  .00028907  00000+0  59377-3 0  9991
2 47527  97.3288 184.7653 0003887  42.5901 317.5649 15.45957671182562
LEMUR-2-CHANTAL         
1 47529U 21006DV  24121.15523461  .00133986  00000+0  13618-2 0  9993
2 47529  97.3329 186.9604 0001845 271.3338  88.7710 15.64743408182634
HIBER-4                 
1 47541U 21006EB  24121.44318867  .00062409  00000+0  11073-2 0  9995
2 47541  97.3253 182.6235 0004057  38.6078 321.5463 15.50015179181465
ARKTIKA-M 1             
1 47719U 21016A   24120.90084931  .00000146  00000+0  00000+0 0  9990
2 47719  63.1367 157.2863 6926301 268.8010  18.0328  2.00602563 23179
STARLINK-2342           
1 47883U 21021Z   24121.17052980 -.00000392  00000+0 -74112-5 0  9993
2 47883  53.0552  82.6065 0001550  95.5761 264.5405 15.06402052174028
GRUS-1B                 
1 47934U 21022C   24121.57550278  .00002441  00000+0  22162-3 0  9999
2 47934  97.6314  15.8168 0019206  55.4734 304.8297 14.96052197169490
2021-022F               
1 47937U 21022F   24121.62516155  .00005898  00000+0  31544-3 0  9997
2 47937  97.4657  18.1588 0012350 314.0739  45.9476 15.15379098171247
CANYVAL-C (PUMBAA)      
1 47938U 21022G   24121.61340519  .00016163  00000+0  67127-3 0  9999
2 47938  97.4619  20.0572 0012268 311.0949  48.9228 15.23838075171397
2021-022H               
1 47939U 21022H   24121.62001982  .00031388  00000+0  98694-3 0  9998
2 47939  97.4679  25.0526 0007264 272.3026  87.7384 15.32888605171672
WILDTRACKCUBE-SIMBA     
1 47941U 21022K   24121.59917400  .00011884  00000+0  55498-3 0  9992
2 47941  97.4649  18.8313 0014246 316.6369  43.3744 15.19880295171238
HIBER-3                 
1 47942U 21022L   24121.45287434  .00022429  00000+0  80904-3 0  9992
2 47942  97.4621  21.8921 0009973 300.8402  59.1856 15.28487398171452
2021-022M               
1 47943U 21022M   24121.60365404  .00029691  00000+0  93428-3 0  9997
2 47943  97.4670  25.1676 0007463 272.6536  87.3851 15.32874953171547
ELSA-D                  
1 47944U 21022N   24121.47920299  .00007834  00000+0  31850-3 0  9998
2 47944  97.4662  21.5356 0011258 298.0966  61.9133 15.24766822171435
UNISAT-7                
1 47945U 21022P   24121.60849497  .00007392  00000+0  38226-3 0  9997
2 47945  97.4635  18.1480 0013120 310.9047  49.1049 15.16477724171097
2021-022Q               
1 47946U 21022Q   24121.58410139  .00012893  00000+0  56495-3 0  9992
2 47946  97.4653  20.6994 0011330 297.9644  62.0445 15.22081512171383
NANOSATC-BR2            
1 47950U 21022U   24121.57980434  .00025426  00000+0  88905-3 0  9993
2 47950  97.4605  22.0122 0010194 303.4135  56.6129 15.29477067171478
CUBESX-SIRIUS-HSE       
1 47951U 21022V   24121.59093113  .00016725  00000+0  70237-3 0  9996
2 47951  97.4647  20.1395 0012835 311.3799  48.6333 15.23449526171329
CUBESX-HSE              
1 47952U 21022W   24121.61341527  .00016171  00000+0  67722-3 0  9995
2 47952  97.4647  20.2449 0012752 310.4050  49.6073 15.23552255171336
2021-022X               
1 47953U 21022X   24121.59849093  .00010462  00000+0  51284-3 0  9997
2 47953  97.4621  17.6698 0014621 320.6364  39.3807 15.18225360170915
KSU-CUBESAT             
1 47954U 21022Y   24121.62051691  .00020076  00000+0  78055-3 0  9998
2 47954  97.4656  21.3683 0011469 305.7777  54.2394 15.26013655171121
CHALLENGE ONE           
1 47956U 21022AA  24121.52003841  .00017692  00000+0  72307-3 0  9997
2 47956  97.4653  20.3214 0012802 312.3578  47.6575 15.24353980171116
2021-022AC              
1 47958U 21022AC  24121.63371521  .00010294  00000+0  49560-3 0  9990
2 47958  97.4605  17.7944 0014623 319.6815  40.3334 15.18856442170017
GRBALPHA                
1 47959U 21022AD  24121.58080664  .00016154  00000+0  67453-3 0  9992
2 47959  97.4651  20.3537 0012544 310.7135  49.3012 15.23654120170156
ORBICRAFT-ZORKY         
1 47960U 21022AE  24121.63203198  .00017008  00000+0  67389-3 0  9996
2 47960  97.4690  21.5234 0011686 307.2140  52.8031 15.25415364170901
3B5GSAT (SATELIOT 1)    
1 47961U 21022AF  24121.51955799  .00098920  00000+0  15516-2 0  9991
2 47961  97.4714  30.6454 0004708 248.0597 112.0156 15.53331537170782
STECCO                  
1 47962U 21022AG  24121.63520705  .00073985  00000+0  14088-2 0  9997
2 47962  97.4652  29.2809 0003541 232.3017 127.7912 15.47942123170740
SMOG-1                  
1 47964U 21022AJ  24121.48027834  .00088233  00000+0  14626-2 0  9997
2 47964  97.4676  30.5796 0004651 223.1572 136.9316 15.51829557170802
CENTAURI-3 (TYVAK-0210) 
1 47966U 21023B   24121.35452491  .00106537  00000+0  13678-2 0  9991
2 47966  45.0062 147.1268 0011166  73.6224 286.5897 15.58037664172054
GLOBAL-9                
1 47971U 21023G   24121.52952910  .00023889  00000+0  59918-3 0  9993
2 47971  44.9906 258.0699 0005635  19.1624 340.9475 15.39655379175056
BCCSAT-1                
1 48041U 21022AK  24121.52740935  .00049587  00000+0  11826-2 0  9991
2 48041  97.4668  27.3346 0004367 249.0067 111.0713 15.41395424170574
BEESAT-8                
1 48085U 21022AP  24121.44772920  .00022775  00000+0  79777-3 0  9999
2 48085  97.4780  23.1378 0009977 301.6074  58.4191 15.29445130170571
2021-033E               
1 48252U 21033E   24121.60697451  .00027838  00000+0  56997-3 0  9994
2 48252  97.2660 195.7356 0005715 347.8042  12.3068 15.46050028167897
AII-BRAVO               
1 48270U 21034C   24121.14144738  .00003667  00000+0  36632-3 0  9997
2 48270  97.6589 183.8775 0002986   3.0226 357.1011 14.92081831163100
TYVAK-182A              
1 48271U 21034D   24121.13144653  .00005395  00000+0  52069-3 0  9995
2 48271  97.6573 184.8742 0002689  61.1229 299.0261 14.93261104163168
CSS (TIANHE)            
1 48274U 21035A   24121.38038675  .00044605  00000+0  48281-3 0  9990
2 48274  41.4714  15.1398 0003707 281.7577  78.2846 15.62762411171615
TYVAK-0130              
1 48606U 21041BF  24121.35091194  .00007299  00000+0  49400-3 0  9990
2 48606  53.0323 348.8046 0010445 294.4758  65.5141 15.07444628162178
HAIYANG-2D              
1 48621U 21043A   24121.61738355  .00000019  00000+0  91246-4 0  9994
2 48621  65.9971  80.5778 0011009 280.1496  79.8330 13.83377606148991
2021-050D               
1 48843U 21050D   24121.56678301  .00009955  00000+0  40018-3 0  9994
2 48843  97.4028 200.1953 0003781  38.3216 321.8290 15.25115531160552
BRIK-II                 
1 48876U 21058F   24121.62599083  .00010250  00000+0  31753-3 0  9990
2 48876  60.6738 294.0397 0018705  18.7979 341.3799 15.33866994157756
TYVAK-0173              
1 48892U 21059P   24121.45128177  .00002185  00000+0  31521-3 0  9993
2 48892  96.0134  23.5217 0011656 131.8677 228.3534 14.76847816153253
CENTAURI-4 (TYVAK-0211) 
1 48898U 21059V   24121.00888545  .00250555  00000+0  11327-2 0  9999
2 48898  97.6076 280.4790 0005584 251.3950 108.6713 15.83305011158648
TUBIN                   
1 48900U 21059X   24121.62000184  .00014421  00000+0  52450-3 0  9999
2 48900  97.6397 264.9513 0006669 247.6066 112.4467 15.28342562157659
UMBRA-2001              
1 48906U 21059AD  24121.62758556  .29722499  26589-5  18310-2 0  9992
2 48906  97.5682 263.1127 0014831 247.0672 239.4234 16.40337929157692
MANDRAKE 2 ABLE         
1 48907U 21059AE  24121.40060093  .00009151  00000+0  37969-3 0  9999
2 48907  97.6409 263.2261 0007662 257.5719 102.4661 15.24069882157529
MANDRAKE 2 BAKER        
1 48908U 21059AF  24121.34766936  .00009550  00000+0  38683-3 0  9999
2 48908  97.6423 263.5970 0007049 245.0073 115.0432 15.24869253157537
PACE-1                  
1 48909U 21059AG  24121.36935844  .00010075  00000+0  39530-3 0  9994
2 48909  97.6329 262.9891 0007444 241.5020 118.5468 15.25918214157574
YAM-2                   
1 48911U 21059AJ  24121.35121087  .00016628  00000+0  55713-3 0  9993
2 48911  97.6417 266.8448 0007277 235.2954 124.7601 15.30982078157737
ION SCV-003             
1 48912U 21059AK  24121.39555507  .00031694  00000+0  74891-3 0  9994
2 48912  97.6106 268.6519 0007109 230.8206 129.2409 15.41760099158036
YAM-3                   
1 48915U 21059AN  24121.38895834  .00008258  00000+0  34149-3 0  9998
2 48915  97.6383 263.3273 0008169 239.7933 120.2496 15.24212996157548
